street_address_1,street_address_2,city,zip,state,country
4343 Washington Dr,,Sun Valley,86029,AZ,US
7369 Main North St,,Bowdle,57428,SD,US
3069 Main South Rd,,Beeville,78102,TX,US
1200 Washington Ct,,Orange Grove,78372,TX,US
1799 Main St,,Valmeyer,62295,IL,US
968 Elm Ave,,Silverdale,98383,WA,US
8233 Church Blvd,,Stockton,67669,KS,US
5238 High Blvd,,Mandeville,70448,LA,US
265 Main North Blvd,,Lund,89317,NV,US
2586 Elm Ct,,Arrowsmith,61722,IL,US
9797 High Blvd,,Omena,49674,MI,US
5573 Main North St,,Butler,62015,IL,US
5410 Main Ct,,Francis,74844,OK,US
74 Main North Dr,,Lawson,64062,MO,US
1940 Main South Dr,,Syracuse,13221,NY,US
4588 Main Blvd,,Coats,27521,NC,US
6139 Church Dr,,Benton Harbor,49023,MI,US
6614 High St,,Amana,52203,IA,US
5842 Washington Dr,,Fenton,63099,MO,US
710 Church Rd,,Eureka,84628,UT,US
8790 High Ct,,Van Buren,72957,AR,US
1331 Main Ct,,Brooks,56715,MN,US
6429 Washington St,,Borderland,25665,WV,US
3189 Main North St,,Cedar,52543,IA,US
6376 Main North Ln,,La Grange,40032,KY,US
5376 Main Ln,,Gladstone,61437,IL,US
5769 Main South Blvd,,California,65018,MO,US
3356 Church St,,Monterey,46960,IN,US
7621 High Ave,,Marietta,30068,GA,US
4237 Main North Dr,,Chisholm,55719,MN,US
9643 Church Dr,,Niagara Falls,14303,NY,US
2406 Elm St,,Westborough,01580,MA,US
5343 Washington Ln,,Attleboro,02703,MA,US
9964 High Ave,,Jasper,75951,TX,US
122 Main North Rd,,Norfolk,23512,VA,US
6448 Church St,,Waldron,98297,WA,US
904 Main North Ave,,Blanca,81123,CO,US
7768 Main St,,Merna,68856,NE,US
686 High Ave,,Rochester,48309,MI,US
2797 Main North Ln,,Ivanhoe,24350,VA,US
2402 Main South Ln,,Milwaukee,53218,WI,US
8974 Washington Ave,,Foster City,49834,MI,US
8191 Washington Ln,,Northbrook,60065,IL,US
5948 High Ct,,Ponce,00730,PR,US
674 Main North St,,Lexington,02420,MA,US
8974 Church Ct,,Granada,81041,CO,US
8544 Church Ave,,Maple City,67102,KS,US
2953 Washington St,,Glidden,78943,TX,US
5676 Main Blvd,,Suffolk,23436,VA,US
8786 High St,,Villalba,00766,PR,US
9094 Main Blvd,,Babbitt,55706,MN,US
7984 Elm St,,Lovell,04051,ME,US
5579 Main North Ct,,Cyrus,56323,MN,US
5760 Elm Rd,,Morrisville,13408,NY,US
6842 Main North Dr,,Plaza,58771,ND,US
9480 Church Blvd,,Corinth,38834,MS,US
7014 Main St,,Atlanta,30357,GA,US
7807 Elm St,,Solway,56678,MN,US
4241 Washington St,,Nahunta,31553,GA,US
7927 Main North Rd,,Ellerslie,31807,GA,US
8730 Elm Rd,,Bowling Green,22428,VA,US
5843 Church Rd,,Harper Woods,48225,MI,US
3363 Elm Rd,,Fort Worth,76102,TX,US
2974 High Ln,,Sebago Lake,04075,ME,US
8325 Main South Rd,,Eastlake,44097,OH,US
2663 Main South Ln,,Van Buren,72956,AR,US
6642 Main Rd,,Collegeville,56321,MN,US
7101 Main Ct,,Ladonia,75449,TX,US
9693 Main North Rd,,Ivydale,25113,WV,US
9197 Main Ct,,Tioga,16946,PA,US
1837 Church Dr,,Mellen,54546,WI,US
4630 Main Ave,,Norfolk,23518,VA,US
2120 Elm St,,North Woodstock,03262,NH,US
4978 Main North Rd,,Montello,53949,WI,US
9126 Church Ave,,Weston,49289,MI,US
123 Church Dr,,Big Falls,56627,MN,US
6345 Elm Rd,,Greeley,66033,KS,US
9406 Elm Ct,,Las Vegas,89116,NV,US
2596 High Blvd,,Daytona Beach,32121,FL,US
7602 Main North Ct,,Moffett,74946,OK,US
1362 Main Ct,,Panama City,32403,FL,US
292 Main South Blvd,,Bethel,55005,MN,US
3211 Main South Dr,,Wortham,76693,TX,US
1577 Main South Ave,,Channing,49815,MI,US
8302 High Dr,,Bismarck,58501,ND,US
7289 High Dr,,Bainville,59212,MT,US
9769 Washington St,,Lewistown,17044,PA,US
8776 Main South St,,Pittsburg,40755,KY,US
2198 Main South Ct,,Fpo,09594,AE,US
116 Elm Ave,,Java Center,14082,NY,US
3789 Washington Rd,,Oneco,06373,CT,US
5981 Washington St,,Minneapolis,55484,MN,US
9412 Main Blvd,,Port Crane,13833,NY,US
2407 Main Blvd,,Corpus Christi,78476,TX,US
2291 Main South Ave,,Raleigh,27611,NC,US
5051 Main South Blvd,,Paris,72855,AR,US
6597 Elm Dr,,Millington,38055,TN,US
5486 High Dr,,Taneyville,65759,MO,US
2057 Main South Ln,,Brookneal,24528,VA,US
8758 Main South Ave,,Galveston,77554,TX,US
6465 Washington Rd,,Little Chute,54140,WI,US
3492 Church Ct,,Eastport,83826,ID,US
5585 Main North Rd,,Des Moines,50319,IA,US
9463 Main North Ct,,Smithton,65350,MO,US
1446 High Ln,,Lynco,24857,WV,US
991 Elm Blvd,,Corona,92880,CA,US
7889 Main Rd,,Carthage,13619,NY,US
9015 Washington Ln,,York,03909,ME,US
378 High Ct,,Panama City,32417,FL,US
789 Main North Ln,,Rockvale,81244,CO,US
4449 Washington Rd,,Isabel,67065,KS,US
4669 Main Blvd,,Wellston,45692,OH,US
1905 Elm Ave,,Houston,77003,TX,US
9543 Church Ave,,Spencer,44275,OH,US
8949 Elm St,,Hoffman Estates,60192,IL,US
6055 Elm Dr,,Jefferson City,59638,MT,US
2885 Main South St,,Baileys Harbor,54202,WI,US
8821 Washington Rd,,Ambia,47917,IN,US
2571 Washington Blvd,,Capitol Heights,20743,MD,US
3193 Main South Blvd,,Madison,53785,WI,US
8855 Church Dr,,Garfield,40140,KY,US
733 Main North Ct,,Salado,76571,TX,US
1689 Church Blvd,,West Rupert,05776,VT,US
582 Washington Ln,,Athens,30601,GA,US
5656 High Ave,,Chelsea,02150,MA,US
2491 Washington Ave,,Franklin,37067,TN,US
1891 High Dr,,Lyon Station,19536,PA,US
6769 Main Blvd,,Tulsa,74112,OK,US
6240 High Ave,,Rileyville,22650,VA,US
4864 Elm St,,Porcupine,57772,SD,US
9787 Main Ln,,Los Angeles,90079,CA,US
4110 Main St,,Grand Rapids,49588,MI,US
5007 Main Rd,,Minneota,56264,MN,US
1669 Main North Ct,,Cayey,00737,PR,US
63 Main North Ln,,Crescent,15046,PA,US
2544 Main South Dr,,Climbing Hill,51015,IA,US
7454 High Ct,,Indiantown,34956,FL,US
8871 High Blvd,,Charleston,25338,WV,US
8118 Elm Rd,,El Granada,94018,CA,US
7324 High Blvd,,Rego Park,11374,NY,US
5169 Main North Ln,,Islip,11751,NY,US
3968 Main South Ct,,Fincastle,24090,VA,US
9677 Main North Dr,,Glade Park,81523,CO,US
9138 Elm Ct,,Memphis,38108,TN,US
1209 Main South Ln,,Umbarger,79091,TX,US
7296 Elm Rd,,Chula Vista,91909,CA,US
9609 Elm Ct,,Eminence,65466,MO,US
3001 Main St,,Nashville,37204,TN,US
7080 High Ct,,Velarde,87582,NM,US
5753 Washington St,,Tumwater,98511,WA,US
6753 Church Rd,,Forsan,79733,TX,US
3805 Elm Ct,,Washington,20505,DC,US
9277 Elm Ln,,Cripple Creek,24322,VA,US
9416 Elm Ave,,Leblanc,70651,LA,US
2681 Main Rd,,Geyserville,95441,CA,US
5478 Washington Blvd,,Craig,64437,MO,US
9256 Church Ln,,Harrison,83833,ID,US
6900 Church St,,Saint Germain,54558,WI,US
1962 Church Rd,,Glade Park,81523,CO,US
1236 Main South St,,North Street,48049,MI,US
1401 Washington Ave,,Banner,38913,MS,US
918 Main South Blvd,,Saint Nazianz,54232,WI,US
3076 Elm Ct,,Dayton,45420,OH,US
4846 Main South Ave,,Grantsville,26147,WV,US
7740 Main Ln,,Thornfield,65762,MO,US
5991 High Ln,,Galloway,26349,WV,US
7909 Main North Ln,,Fostoria,48435,MI,US
9268 Main South Blvd,,Southfield,48076,MI,US
3572 Washington Rd,,Lakeland,33815,FL,US
8243 Church Blvd,,Gum Spring,23065,VA,US
6139 Washington Blvd,,North Smithfield,02896,RI,US
8298 Main South Dr,,Clayton,46118,IN,US
4375 Main North Blvd,,Middletown,62666,IL,US
3283 Main North Ave,,Hudson,61748,IL,US
7740 Church Ct,,Grinnell,50112,IA,US
4363 Main Rd,,North Vernon,47265,IN,US
6838 Main South Ave,,Stanton,36790,AL,US
7990 Main South Blvd,,La Veta,81055,CO,US
8008 Elm Ct,,Harrisville,48740,MI,US
8510 High Ave,,Wilkes Barre,18710,PA,US
1942 Church St,,Camp Murray,98430,WA,US
152 Main South Ln,,Rose,14542,NY,US
3608 Main Dr,,Bonita Springs,34135,FL,US
2574 Elm Rd,,Riverside,92505,CA,US
9826 Washington Ln,,Zacata,22581,VA,US
5159 Main South St,,Armonk,10504,NY,US
143 Elm Blvd,,Chase Mills,13621,NY,US
1094 High Ln,,Dunn,28334,NC,US
17 Washington Ave,,Lanexa,23089,VA,US
5658 Main South Ln,,Alva,73717,OK,US
2743 Main Ave,,Rohwer,71666,AR,US
1701 Main South St,,Vevay,47043,IN,US
2200 Washington St,,Charlotte,28210,NC,US
9701 Elm Blvd,,Birchwood,37308,TN,US
1720 High Ct,,Flint,48504,MI,US
8700 Main Blvd,,Lambert,38643,MS,US
4586 Elm St,,Gallipolis Ferry,25515,WV,US
4414 Elm Ln,,West Wardsboro,05360,VT,US
4494 Church Ct,,Topinabee,49791,MI,US
7782 High Ave,,Whitesburg,30185,GA,US
4384 Elm St,,Nooksack,98276,WA,US
4830 Elm Ave,,Crane Lake,55725,MN,US
8834 Main Ave,,Hodge,71247,LA,US
9048 Church Rd,,Petaca,87554,NM,US
5379 Church Rd,,Blairsville,30512,GA,US
233 Main South Rd,,Camp Grove,61424,IL,US
8291 Main South Blvd,,New Buffalo,49117,MI,US
3149 Main Ct,,Thawville,60968,IL,US
1429 High Dr,,Apple Valley,92308,CA,US
3580 Elm Ave,,Concord,24538,VA,US
5460 Main South St,,Rockwell,50469,IA,US
8127 Main South Rd,,Monroe,38573,TN,US
3416 Main Rd,,Dallas,75246,TX,US
9355 High Blvd,,Greensboro,27401,NC,US
7899 Main South Blvd,,Lansing,48915,MI,US
3738 Elm Ln,,Mc Allister,59740,MT,US
1328 Washington Ln,,Supai,86435,AZ,US
1769 Church Blvd,,New Milton,26411,WV,US
226 Main South St,,Melbourne,32912,FL,US
2086 Church St,,Columbus,31901,GA,US
3647 Elm Ln,,Patillas,00723,PR,US
1277 Church Blvd,,Fpo,09505,AE,US
1070 Church Ln,,Providence Forge,23140,VA,US
4605 High Rd,,Raleigh,27650,NC,US
5046 Main South Ct,,Guerra,78360,TX,US
4874 Washington Dr,,Weston,75097,TX,US
8252 Church Ave,,Greenwood,54437,WI,US
766 Main Rd,,Luck,54853,WI,US
756 High Blvd,,Stetson,04488,ME,US
3124 Main North Ln,,Littleton,80160,CO,US
7959 High St,,Frakes,40940,KY,US
7747 High Blvd,,Cactus,79013,TX,US
3100 High Ln,,Sullivan,53178,WI,US
8666 High Ave,,Milburn,42070,KY,US
9380 Main North St,,Eveleth,55734,MN,US
3007 Main Rd,,Solsberry,47459,IN,US
2820 Elm Blvd,,Saint Thomas,17252,PA,US
5125 Main North Blvd,,New York,10034,NY,US
9584 Elm Rd,,Garland,75040,TX,US
2051 Main Ct,,Versailles,65084,MO,US
6207 Church Ave,,Lyndon Station,53944,WI,US
2733 Main Ct,,Denham Springs,70726,LA,US
8409 Main South Ct,,Peru,67360,KS,US
6622 Church St,,Lehigh Acres,33974,FL,US
2395 Church Dr,,Charleston,25396,WV,US
7014 Church Ave,,Twentynine Palms,92278,CA,US
8138 Elm Blvd,,Tucson,85735,AZ,US
1471 Church Rd,,Norman,71960,AR,US
8720 Main Blvd,,Oilmont,59466,MT,US
4821 Church Ave,,Fort Sheridan,60037,IL,US
6941 Elm St,,Warne,28909,NC,US
7247 High Dr,,Mill Spring,63952,MO,US
1520 Washington Rd,,San Jose,95138,CA,US
4386 Main North Ln,,Long Pond,18334,PA,US
1138 Main South St,,Harrisburg,17111,PA,US
4521 High St,,Kennard,68034,NE,US
8464 Washington Ct,,Woodland Park,80863,CO,US
1810 Main North Blvd,,Severance,80546,CO,US
7814 Church Dr,,Oshkosh,54904,WI,US
1400 Washington Dr,,Niles,60714,IL,US
9607 Main South Blvd,,Far Rockaway,11690,NY,US
4173 Church Dr,,Auburntown,37016,TN,US
2606 Elm Ct,,Cement,73017,OK,US
7592 Elm Blvd,,Newport Beach,92659,CA,US
4712 Elm Blvd,,Hume,93628,CA,US
1619 Church Ln,,Northbrook,60062,IL,US
8679 Church Ct,,Silver Spring,20907,MD,US
3747 Main Rd,,Lingleville,76461,TX,US
6562 Main North Blvd,,North,23128,VA,US
8104 Elm St,,Indianapolis,46226,IN,US
2676 Main South St,,Tiverton,02878,RI,US
8702 Church Ct,,Monticello,42633,KY,US
5082 Washington Ave,,Concrete,98237,WA,US
2541 Washington Ct,,Pea Ridge,72751,AR,US
349 Church Blvd,,Beaufort,29904,SC,US
9932 Main North Ave,,Lackawaxen,18435,PA,US
5296 Elm St,,Port Orford,97465,OR,US
6270 Church Ln,,Chippewa Bay,13623,NY,US
4312 Main Dr,,Wayland,14572,NY,US
6234 High Ave,,Hope Mills,28348,NC,US
4205 Washington Ln,,Red Rock,74651,OK,US
5553 Elm Ave,,Eden,27289,NC,US
1460 Church Rd,,High Springs,32643,FL,US
861 Main South St,,East Stroudsburg,18301,PA,US
272 Main North St,,Glen Flora,77443,TX,US
7441 Washington Ln,,Boca Raton,33498,FL,US
4154 Washington Ct,,Washington,20442,DC,US
610 Main South Ave,,Roscoe,79545,TX,US
3049 Main Blvd,,Wanblee,57577,SD,US
744 Church St,,Spokane,99206,WA,US
4516 Church Blvd,,Columbus,43240,OH,US
3874 Church Blvd,,Seattle,98148,WA,US
239 Main Ct,,Huntington,25722,WV,US
8211 Main North Ct,,Gilbertsville,13776,NY,US
2508 Elm Ct,,Inkom,83245,ID,US
2071 Washington Ave,,Easton,21601,MD,US
3474 High Dr,,Pelham,03076,NH,US
8369 Church Dr,,Arcadia,91007,CA,US
7245 Main North St,,Houston,77004,TX,US
3324 Main North Dr,,Santa Clarita,91390,CA,US
9832 Main North Dr,,Cainsville,64632,MO,US
1256 High Ave,,Gilbertsville,19525,PA,US
8402 Washington Dr,,Palmetto,34220,FL,US
2383 Church Blvd,,Beavercreek,97004,OR,US
1530 Church Dr,,Wellington,60973,IL,US
2823 Washington Ln,,Vidalia,71373,LA,US
3702 High St,,Como,80432,CO,US
3098 Main Dr,,Carrabelle,32322,FL,US
4450 Washington Dr,,Baltimore,21229,MD,US
4449 Main Blvd,,Boise,83712,ID,US
6662 Church Ln,,Mount Dora,32757,FL,US
8444 Main North Ln,,Phillipsburg,45354,OH,US
6972 Washington Ct,,Colorado Springs,80949,CO,US
2192 Elm Ave,,Saint John,67576,KS,US
107 Elm Ln,,Hamlet,28345,NC,US
6019 Elm Ave,,Billings,59104,MT,US
539 Main South Rd,,Laurelton,17835,PA,US
8350 Main South Ln,,Holman,87723,NM,US
6954 Main North St,,Rutland,50582,IA,US
1066 Washington Ave,,Unalakleet,99684,AK,US
5196 High Ct,,American Canyon,94503,CA,US
3554 Main South Dr,,Fort Riley,66442,KS,US
8499 Church Blvd,,East Jordan,49727,MI,US
6188 Washington Dr,,Hindman,41822,KY,US
8425 Washington Rd,,Toledo,43660,OH,US
7275 Main North Rd,,Pocono Lake,18347,PA,US
958 Elm Blvd,,Macon,31217,GA,US
1012 Main North St,,Weslaco,78596,TX,US
3724 High Ct,,Dighton,02715,MA,US
2087 Elm Blvd,,Chadwick,65629,MO,US
3604 High Ln,,Painesville,44077,OH,US
5895 Main North Rd,,Sinnamahoning,15861,PA,US
9373 High Ave,,Monroe,28112,NC,US
11 Washington Ln,,Soap Lake,98851,WA,US
1648 Main Ave,,Fort White,32038,FL,US
8889 Main North Ct,,Adrian,56110,MN,US
1609 Washington Ave,,Melissa,75454,TX,US
8811 Main North Ln,,Pepeekeo,96783,HI,US
4967 Main Ave,,Saint Petersburg,33706,FL,US
5722 Elm Ave,,Eckman,24829,WV,US
7721 Main North Ct,,University Place,98467,WA,US
8889 Main North Dr,,Sioux Falls,57101,SD,US
805 Main North Ln,,Cave City,42127,KY,US
478 Main North Rd,,Suburb Maryland Fac,20897,MD,US
1018 Main North Rd,,Duke,73532,OK,US
2308 High Ln,,Portland,97256,OR,US
4241 Elm Dr,,Hillsboro,62049,IL,US
6946 High St,,Friendship,38034,TN,US
4248 Elm Blvd,,Fairfax,94978,CA,US
4973 Church St,,Cordova,29039,SC,US
4650 Washington Ln,,Pine Ridge,57770,SD,US
2779 Main North Ave,,Hensley,72065,AR,US
5216 Main Ave,,Cashmere,98815,WA,US
8273 Church Blvd,,Billings,59107,MT,US
3276 Main Ave,,Margate,33093,FL,US
2662 Washington Blvd,,Hampton,23661,VA,US
7951 Main Dr,,Jacksonville,28540,NC,US
1621 Elm St,,Saint Louis,63119,MO,US
5323 High Dr,,Cibolo,78108,TX,US
4252 Elm Ln,,Des Moines,50368,IA,US
345 Washington Rd,,Memphis,38186,TN,US
9371 Washington Rd,,Neenah,54956,WI,US
6117 Main North St,,Howe,75459,TX,US
6924 Main Blvd,,Aragon,30104,GA,US
4690 Main North Ave,,Bolivar,65613,MO,US
8969 Main Ct,,Huntington,25709,WV,US
8667 Washington Ave,,New Prague,56071,MN,US
111 Elm Ln,,Loudon,03307,NH,US
5574 Main Dr,,Baxley,31513,GA,US
4495 Main Blvd,,Lincoln,68517,NE,US
957 Washington Rd,,Richland,13144,NY,US
2873 Main Rd,,Montchanin,19710,DE,US
220 Washington Rd,,Toledo,43620,OH,US
285 Elm Blvd,,Lynnville,42063,KY,US
2644 High Rd,,Bordelonville,71320,LA,US
5244 Main South Dr,,Pompano Beach,33064,FL,US
3574 Main Ave,,Broadway,22815,VA,US
3870 Church Dr,,Gleason,38229,TN,US
9478 Washington Ave,,Whittier,90609,CA,US
3403 Elm Blvd,,Montgomery,36123,AL,US
1376 Church Ln,,Grasston,55030,MN,US
5750 Washington Ln,,Hardyville,42746,KY,US
8601 Main North Ln,,Kissee Mills,65680,MO,US
3476 High St,,Greens Farms,06838,CT,US
3104 Main North St,,Camas Valley,97416,OR,US
7295 Church Dr,,Braden,38010,TN,US
1173 High Ave,,Union,97883,OR,US
1656 Washington Blvd,,Tracyton,98393,WA,US
8548 Church Rd,,New Milton,26411,WV,US
7089 Church Ct,,Las Vegas,89154,NV,US
8181 Washington Ln,,Mc Cutchenville,44844,OH,US
7157 Main South Ln,,Colesburg,52035,IA,US
3952 Washington Dr,,Matfield Green,66862,KS,US
69 Washington Rd,,Fullerton,92835,CA,US
5572 High Rd,,Kipton,44049,OH,US
938 Church Blvd,,Powell,75153,TX,US
2005 Elm Rd,,Puyallup,98374,WA,US
4323 Washington Ln,,Boston,02207,MA,US
3931 Elm Rd,,Mitchell,69357,NE,US
708 Main North Dr,,Wenatchee,98807,WA,US
3136 Washington Ln,,Alloway,08001,NJ,US
5030 High Dr,,Philadelphia,19190,PA,US
4906 Main South Blvd,,Campbellsport,53010,WI,US
2201 Washington Rd,,Alto,30596,GA,US
9617 Main South Ln,,Stonewall,78671,TX,US
2028 Main South Blvd,,Oceanside,92058,CA,US
408 Washington Ct,,Memphis,38122,TN,US
2271 Elm Rd,,Cleveland,44111,OH,US
480 Washington Blvd,,Lakeside,59922,MT,US
7291 Elm Ct,,Pennville,47369,IN,US
6384 Main North Ln,,Perris,92572,CA,US
1429 Main Dr,,Bradley,57217,SD,US
852 Church St,,Gilbertville,01031,MA,US
9043 Church Ave,,Ceres,14721,NY,US
181 Main North Ave,,Hamilton,31811,GA,US
6618 Elm Dr,,Bradenton,34209,FL,US
4993 Washington St,,Lake Odessa,48849,MI,US
1257 Washington Rd,,Ringwood,07456,NJ,US
1243 Main North Rd,,Kempton,60946,IL,US
8585 Church Rd,,Cook,55723,MN,US
3832 Elm Ln,,Lithonia,30058,GA,US
6249 Main North Ln,,Norfolk,23513,VA,US
8760 Main South Rd,,Bern,66408,KS,US
2134 High Ct,,Shreveport,71149,LA,US
503 High St,,Jacksonville,32254,FL,US
3187 Main South Dr,,Wakefield,02879,RI,US
5268 Elm Rd,,Ballico,95303,CA,US
2575 Elm Dr,,Marshes Siding,42631,KY,US
4087 Main Ct,,Indianapolis,46240,IN,US
5757 Main North Rd,,Austin,89310,NV,US
3281 Main South Ave,,Talihina,74571,OK,US
1178 Main North St,,Max Meadows,24360,VA,US
9111 Church Ave,,Janesville,96114,CA,US
34 Main North Rd,,San Jose,95138,CA,US
2453 Church St,,Mentone,79754,TX,US
3923 Main Ln,,Westfield,07090,NJ,US
1377 Main South Dr,,Syracuse,13204,NY,US
529 Main South Dr,,Red Bud,62278,IL,US
292 Main Blvd,,Neligh,68756,NE,US
2790 Elm Blvd,,Orient,11957,NY,US
4133 Washington Ave,,Cortez,34215,FL,US
472 Church Ln,,Ivel,41642,KY,US
6793 Main South Rd,,Akron,35441,AL,US
1540 Main North Rd,,Fort Wayne,46896,IN,US
4134 Main St,,Scott City,63780,MO,US
8710 Church St,,Bedford,76022,TX,US
3502 Main Ct,,New London,06320,CT,US
5638 Main North Ave,,Lohman,65053,MO,US
1632 Main South Ave,,Fox River Grove,60021,IL,US
7219 Washington Ct,,Montgomery,77356,TX,US
536 Main North Dr,,Bartlett,60103,IL,US
4208 Main Ln,,Chesterfield,01012,MA,US
2438 Main St,,Briggsville,53920,WI,US
632 Main North Blvd,,Ballentine,29002,SC,US
3349 Church St,,Tilton,03298,NH,US
3577 Church Ln,,Revloc,15948,PA,US
452 Washington Ct,,Betterton,21610,MD,US
8109 Elm St,,Norwood,55554,MN,US
4639 Church Ct,,Las Vegas,89185,NV,US
7544 Main South Ct,,Surprise,85374,AZ,US
878 Main Ln,,Philipsburg,16866,PA,US
6174 High Ct,,Millboro,24460,VA,US
1566 Main North Blvd,,Monclova,43542,OH,US
1676 Main Ave,,Carlisle,50047,IA,US
7588 High Blvd,,Postville,52162,IA,US
4018 High Dr,,Colorado Springs,80908,CO,US
3924 Main North Rd,,New Richland,56072,MN,US
5564 Main South Ct,,Malden On Hudson,12453,NY,US
3528 Main North Dr,,Green Bay,54302,WI,US
2325 High Blvd,,Hobart,98025,WA,US
7011 Main South Blvd,,Belfry,41514,KY,US
4888 Elm Rd,,Valley Lee,20692,MD,US
7073 High Rd,,Sharps,22548,VA,US
2152 Washington St,,Knoxville,37950,TN,US
4831 High Ct,,Smith Mills,42457,KY,US
1371 Church Blvd,,Starlight,18461,PA,US
9286 Main Ave,,Tylersburg,16361,PA,US
3301 Washington Blvd,,Grand Chenier,70643,LA,US
8071 Washington Ave,,Tridell,84076,UT,US
2407 Church Ave,,Saint Landry,71367,LA,US
4018 Main North Rd,,Big Lake,99652,AK,US
8631 Main South Dr,,Arlington,76004,TX,US
5691 Main North Dr,,Cedar Lake,48812,MI,US
5041 Main South Rd,,Seaview,23429,VA,US
7399 Main Ave,,Saint Louis,63137,MO,US
8296 Main South Blvd,,Mount Vernon,36560,AL,US
4363 Main North Rd,,New York,10138,NY,US
4890 Main Rd,,Hamburg,71339,LA,US
7226 Main North Ave,,Alzada,59311,MT,US
5401 Main North Ave,,Java,57452,SD,US
2669 Main South Ct,,Briar,63931,MO,US
7775 Elm Dr,,Ashfield,01330,MA,US
1653 Main South Dr,,Cavour,57324,SD,US
5291 Main St,,Sultana,93666,CA,US
2378 Washington Blvd,,Wallace,95254,CA,US
1497 Washington Blvd,,Choudrant,71227,LA,US
4676 Main North Ln,,Hoyt,74440,OK,US
1857 Main South Ave,,Norwalk,06851,CT,US
2696 Main South St,,Birmingham,35221,AL,US
5969 Elm Ln,,Worcester,01615,MA,US
5190 Church Ct,,Stet,64680,MO,US
220 Washington Ct,,New Orleans,70156,LA,US
2636 Main South Ln,,Penelope,76676,TX,US
5452 Main Blvd,,Deweese,68934,NE,US
9168 High Dr,,Cross,29436,SC,US
1939 Washington Ct,,Rollins Fork,22544,VA,US
2952 Main North Ave,,Potsdam,45361,OH,US
9067 Main North Dr,,Long Beach,90801,CA,US
3333 Church Ln,,Niagara,54151,WI,US
3266 Church Dr,,Lorman,39096,MS,US
8596 Main North Dr,,Bandon,97411,OR,US
3934 High Rd,,Garner,41817,KY,US
379 High Blvd,,Ranchester,82839,WY,US
1619 Main North Rd,,Lakeshore,33854,FL,US
7664 High Blvd,,Palmdale,93590,CA,US
2756 Main North Dr,,Elmira,97437,OR,US
3067 Washington Rd,,Sunshine,70780,LA,US
3280 Washington Ln,,Mc Lain,39456,MS,US
2743 Main South Ct,,Young America,55553,MN,US
393 Main North Blvd,,Heartwell,68945,NE,US
1812 Main South Rd,,Rillito,85654,AZ,US
5172 Main South Ave,,Williamsport,47993,IN,US
702 Main North Ln,,Websterville,05678,VT,US
4278 Washington Ln,,Towaoc,81334,CO,US
2676 High Ave,,Albany,31707,GA,US
8667 Washington Blvd,,Maytown,17550,PA,US
4729 High Ct,,Brookline,03033,NH,US
5183 Church Dr,,Pisgah,51564,IA,US
1541 Washington Rd,,Milliken,80543,CO,US
7 High Dr,,Tulsa,74102,OK,US
2872 Elm Ln,,Stafford,77477,TX,US
7489 High St,,Lee,01238,MA,US
8341 Elm St,,Tucson,85717,AZ,US
8879 High Blvd,,Northridge,91327,CA,US
4673 Main Ln,,Montgomery,36191,AL,US
3527 Main North Rd,,South Hamilton,01982,MA,US
9211 High Blvd,,Woodward,73801,OK,US
6356 Main North Ave,,El Paso,88556,TX,US
9961 High Ct,,Cape Charles,23310,VA,US
2445 Church Dr,,Washington,20555,DC,US
2308 Church Ave,,Burlington,26710,WV,US
5335 Main North Ln,,Storm Lake,50588,IA,US
7133 Main South Ln,,New York,10258,NY,US
5701 Church St,,Donalsonville,39845,GA,US
608 Washington Blvd,,Waco,76716,TX,US
7855 Main South Ln,,Denver,80280,CO,US
7772 Main North Ln,,Latexo,75849,TX,US
8162 Main Dr,,Roswell,88201,NM,US
9292 Main Dr,,Beverly,26253,WV,US
7906 Main South St,,Seville,44273,OH,US
5925 Church Blvd,,Surprise,85378,AZ,US
2461 Washington Blvd,,Macon,31202,GA,US
3153 Main North Rd,,Williamsport,21795,MD,US
378 High Ave,,Richmond,01254,MA,US
6503 Main South Ln,,Talent,97540,OR,US
8659 Church Ln,,Mill City,97360,OR,US
528 Washington Ln,,The Dalles,97058,OR,US
5643 Main Dr,,Lodi,07644,NJ,US
9271 Main South Ct,,Kennedy,35574,AL,US
6482 Main South Ln,,Canton,39046,MS,US
2773 Main North Ave,,Glenns Ferry,83623,ID,US
860 Elm Rd,,Amarillo,79110,TX,US
6612 High Dr,,Battle Ground,98604,WA,US
8613 Elm Rd,,Clay Center,43408,OH,US
8704 Main North Ct,,Tacoma,98444,WA,US
9068 Washington Ct,,Catano,00963,PR,US
667 Main St,,Black River Falls,54615,WI,US
5925 High Ave,,Clearlake Oaks,95423,CA,US
7515 Washington Rd,,Allendale,62410,IL,US
9882 Elm St,,Upsala,56384,MN,US
1565 Washington Dr,,Charlotte,28204,NC,US
9849 Main North St,,Panola,74559,OK,US
9033 Elm Rd,,Cleveland,44119,OH,US
5036 Elm Ave,,Welches,97067,OR,US
9686 Main South St,,Jonesboro,76538,TX,US
2874 Main Ln,,Syracuse,13221,NY,US
4477 Church Rd,,Milton,70558,LA,US
9985 Washington Dr,,Lake Hamilton,33851,FL,US
7161 High Rd,,South Plainfield,07080,NJ,US
2394 Elm Ave,,Fpo,96614,AP,US
1737 Washington Rd,,Ponte Vedra Beach,32004,FL,US
972 High Rd,,Newark,07195,NJ,US
39 Elm Dr,,Scranton,18540,PA,US
8107 Washington Blvd,,Lake Worth,33463,FL,US
1703 Main South Blvd,,North Bridgton,04057,ME,US
6670 Main North Dr,,Independence,24348,VA,US
4012 Main North Ct,,North Westchester,06474,CT,US
8931 Main South Ct,,Worthington,52078,IA,US
1080 Main Rd,,Lebanon,73440,OK,US
2726 Main St,,Mc Dowell,41647,KY,US
853 Main Blvd,,Veteran,82243,WY,US
7475 Elm St,,Britt,55710,MN,US
6970 Elm Ln,,Beebe Plain,05823,VT,US
3868 Church Rd,,Mulkeytown,62865,IL,US
9176 Main South Ln,,Youngsville,27596,NC,US
1615 Main South Ave,,Blue Gap,86520,AZ,US
74 Main South Blvd,,Iola,54990,WI,US
1013 Main South Rd,,West Rockport,04865,ME,US
3711 Church Ln,,Rainbow,76077,TX,US
1731 Church Dr,,Montpelier,52759,IA,US
9502 High Ln,,Saint James,65559,MO,US
9966 High Ln,,Sims,62886,IL,US
8969 Elm Ln,,Hedley,79237,TX,US
3446 Elm St,,South West City,64863,MO,US
9637 Main Ln,,Leesport,19533,PA,US
4263 Main St,,Caneyville,42721,KY,US
7628 Main South Ct,,Exeter,93221,CA,US
3333 Church Ln,,Rhinelander,54501,WI,US
6065 Main North Ln,,North Metro,30026,GA,US
3667 Church Rd,,Elkin,28621,NC,US
2121 Main Ave,,Mason City,62664,IL,US
5995 Elm Dr,,Leeds,01053,MA,US
2555 Church Rd,,Los Angeles,90082,CA,US
6912 Main Rd,,Avondale,19311,PA,US
364 Washington Ave,,Ladd,61329,IL,US
1176 Main Dr,,Winooski,05404,VT,US
1691 Elm St,,Manokin,21836,MD,US
1156 Church Ln,,Danville,99121,WA,US
6864 High Ln,,Parsons,67357,KS,US
7126 Main South Blvd,,Custer,40115,KY,US
8656 Church Ct,,Revere,56166,MN,US
2533 Elm Dr,,Ormond Beach,32176,FL,US
7295 Elm Dr,,Suffolk,23432,VA,US
3522 High Ave,,San Diego,92155,CA,US
2970 Washington Rd,,Wilson,79381,TX,US
871 Main South Rd,,Tampa,33604,FL,US
29 Charlton St,,New York,10014,NY,US
7367 High Dr,,Concord,94527,CA,US
351 Church Dr,,Grosse Pointe,48230,MI,US
3827 Main South St,,Crawfordsville,72327,AR,US
745 Washington Ave,,Bancroft,68004,NE,US
5680 Washington Blvd,,Cincinnati,45235,OH,US
9289 High Ave,,Eagle,53119,WI,US
8248 High Blvd,,Clinton,47842,IN,US
6952 Main Dr,,Fairfield,32634,FL,US
1811 Main North Ln,,Rockville,20857,MD,US
1443 Elm Dr,,Tampa,33681,FL,US
9337 High Dr,,Whitley City,42653,KY,US
5002 Main North Ln,,Norman,71960,AR,US
6725 Main South Dr,,Riverton,26814,WV,US
2369 Washington Ave,,Dallas,75363,TX,US
466 Church St,,Huntsville,62344,IL,US
4507 Main St,,Walkerville,49459,MI,US
8960 Church Ave,,Santa Barbara,93111,CA,US
8195 Main North Dr,,San Jose,95173,CA,US
4921 Washington Dr,,Willis,48191,MI,US
9744 Main South Rd,,Des Moines,50361,IA,US
4319 Church Dr,,Hurley,12443,NY,US
7053 Church Rd,,Locustville,23404,VA,US
4931 Main North Ct,,Boynton Beach,33425,FL,US
2498 Washington Rd,,Ordway,81063,CO,US
9945 Church Blvd,,Alma,26320,WV,US
5940 Elm Ln,,Canton,30114,GA,US
8985 Elm Rd,,Upper Marlboro,20773,MD,US
3930 Washington Dr,,Saint Petersburg,33704,FL,US
253 Church St,,Douglas,01516,MA,US
3100 High Ln,,Giltner,68841,NE,US
1511 Main St,,Dallas,75225,TX,US
7557 Elm St,,Beaumont,77713,TX,US
6582 Main North Rd,,Taft,74463,OK,US
2274 Church Dr,,Bradford,16701,PA,US
346 Washington Blvd,,San Diego,92116,CA,US
9133 Main Rd,,Tuleta,78162,TX,US
7050 Main North Ct,,Saint Louis,63163,MO,US
5249 Main South Rd,,Philadelphia,19161,PA,US
3843 Elm Ln,,Onalaska,54650,WI,US
1559 Elm St,,Ashfield,18212,PA,US
8423 Washington St,,Purvis,39475,MS,US
1705 Elm Ave,,Stebbins,99671,AK,US
1937 Main North Ln,,Church Point,70525,LA,US
4100 Church Ct,,Mount Hope,67108,KS,US
8636 Main South Blvd,,Overland Park,66214,KS,US
8270 Washington St,,Haskins,43525,OH,US
6447 Main Blvd,,Stockton,95215,CA,US
909 High Blvd,,Flint,48531,MI,US
7802 Elm Ln,,Bessemer,49911,MI,US
196 Elm Blvd,,Currituck,27929,NC,US
5967 Main Rd,,Lenoir City,37772,TN,US
6993 High Ave,,Ketchum,74349,OK,US
250 Main North Ln,,Utica,13503,NY,US
8833 Elm Rd,,Aurora,60506,IL,US
2041 Main Rd,,Dallas,75264,TX,US
4224 Washington Dr,,Saint Louis,63104,MO,US
5628 Main South Dr,,Clint,79836,TX,US
5373 Main South Ct,,Newman,61942,IL,US
176 Main North St,,Kensett,72082,AR,US
6350 Elm Blvd,,Albany,12244,NY,US
896 Main South St,,Anniston,63820,MO,US
1379 Main North Dr,,Warrenton,30828,GA,US
7883 Main Ct,,North Attleboro,02760,MA,US
9114 Washington Ln,,Davis,95617,CA,US
1805 High Rd,,Henning,56551,MN,US
3149 Washington Ln,,Anderson,46012,IN,US
3840 Washington Rd,,Aberdeen,83210,ID,US
214 High Ave,,Zoar,44697,OH,US
1722 Main North St,,West Simsbury,06092,CT,US
5127 Main North Ct,,Drake,80515,CO,US
3311 Washington St,,Nursery,77976,TX,US
1850 High Ln,,Santa Barbara,93160,CA,US
7253 Church Ct,,Athens,54411,WI,US
8782 Washington St,,Elmont,11003,NY,US
5188 High Blvd,,Shattuck,73858,OK,US
1947 Church Ln,,Montrose,55363,MN,US
7327 Main North St,,Jacksonville,32215,FL,US
6261 Church St,,Houston,77014,TX,US
4860 Main South Ln,,Philadelphia,19187,PA,US
7548 Church St,,San Rafael,94912,CA,US
1554 Main Ln,,Bridgeport,06601,CT,US
7003 Main South Rd,,Hinckley,44233,OH,US
5627 Washington St,,Lake Orion,48359,MI,US
6418 Washington Ave,,El Paso,88512,TX,US
5236 High Ln,,Des Moines,50339,IA,US
9558 Church Ave,,De Valls Bluff,72041,AR,US
6506 Main South Ave,,Wolf,82844,WY,US
5467 Main Ct,,Loraine,79532,TX,US
3427 Church Ln,,Johnston City,62951,IL,US
7231 Main South Ln,,Mesa,85277,AZ,US
692 Washington Blvd,,Pittsburg,65724,MO,US
7216 Washington Ave,,West Hills,91308,CA,US
9394 Elm Blvd,,Oxford,47971,IN,US
5535 Church Rd,,Abingdon,61410,IL,US
7696 Main North Dr,,Philadelphia,19120,PA,US
4486 Church Ave,,South Woodstock,06267,CT,US
6485 Church Dr,,Cassel,96016,CA,US
3225 High Ave,,Decherd,37324,TN,US
7261 High St,,Cascade,80809,CO,US
8093 Elm Ave,,Arapahoe,80802,CO,US
2785 Main South St,,Colony,73021,OK,US
622 Church Rd,,Lincoln,68520,NE,US
8954 Main North Blvd,,Decatur,30036,GA,US
3889 Main South St,,Osyka,39657,MS,US
1952 Elm Ave,,Adrian,64720,MO,US
2775 Main St,,Denver,64441,MO,US
5043 Washington Ct,,Sandy Ridge,27046,NC,US
9953 Elm Rd,,Wright,55798,MN,US
6551 Main St,,Moab,84532,UT,US
414 Main North Rd,,Angleton,77515,TX,US
6083 Church Ln,,Watchung,07069,NJ,US
3616 Washington Ct,,Panama City,32406,FL,US
3432 Church St,,Rocky Gap,24366,VA,US
550 High Ln,,Agra,67621,KS,US
3171 Main South Ct,,Thatcher,85552,AZ,US
3288 Main North Dr,,Hawaiian Gardens,90716,CA,US
85 High Blvd,,Brownsboro,35741,AL,US
227 Elm Ct,,Gotebo,73041,OK,US
2089 Washington Rd,,Phoenix,85083,AZ,US
1791 Elm Ct,,Fpo,09511,AE,US
2310 Main North St,,New Cumberland,17070,PA,US
9690 Main Ave,,Miami,33134,FL,US
4206 Elm Ave,,New Bethlehem,16242,PA,US
4771 Main South Ct,,Ivesdale,61851,IL,US
4975 Church Blvd,,Gosport,47433,IN,US
1886 Main Dr,,Lone Pine,93545,CA,US
2933 Church Blvd,,Liverpool,13088,NY,US
2938 Main Dr,,Whitefield,03598,NH,US
6156 High Ave,,State Line,47982,IN,US
2830 High Ct,,Butte,59701,MT,US
3158 Elm Blvd,,Eatontown,07799,NJ,US
6342 Church Rd,,Mchenry,60050,IL,US
2401 Main South St,,Wikieup,85360,AZ,US
9237 Washington Ave,,Roanoke,24007,VA,US
8907 Church Ct,,Westbury,11594,NY,US
2464 Main North Ln,,Amelia,68711,NE,US
499 Elm Blvd,,Hepzibah,26369,WV,US
1302 High Ct,,Cochrane,54622,WI,US
7938 Church Ct,,Belvidere Center,05442,VT,US
3535 Main Ct,,Yakima,98908,WA,US
2302 Church Dr,,Belleair Beach,33786,FL,US
8496 Main North Ct,,Sacramento,94256,CA,US
9742 Main Ave,,Kentland,47951,IN,US
3900 Main North St,,Okeana,45053,OH,US
5231 High Ct,,Carolina,26563,WV,US
1117 Main North Ln,,Bakers Mills,12811,NY,US
9097 Washington Blvd,,Bryan,77807,TX,US
4749 Main Ln,,Cranberry Lake,12927,NY,US
2134 Church Ave,,Bridgeport,06602,CT,US
2646 Main South Rd,,Arroyo Grande,93420,CA,US
1818 Main South Ln,,Miami,33299,FL,US
9620 Elm Ave,,Tracys Landing,20779,MD,US
4367 Church Ct,,Erie,16503,PA,US
6652 Elm Rd,,Patoka,47666,IN,US
8588 Elm Rd,,Mc Kean,16426,PA,US
4723 Main North Blvd,,Blachly,97412,OR,US
6213 Main Ave,,State Farm,23160,VA,US
8744 Main South Dr,,Arlington,22204,VA,US
1913 Main North Dr,,Shelby,28150,NC,US
2414 Main South Ct,,Vaughan,27586,NC,US
4001 Church St,,Irwin,83428,ID,US
977 High Rd,,Stoneham,80754,CO,US
6002 Main St,,West Edmeston,13485,NY,US
7530 High Blvd,,Corpus Christi,78465,TX,US
1524 High Ave,,Edgemont,19028,PA,US
3748 Elm Ave,,Minford,45653,OH,US
661 Main South Ave,,Oto,51044,IA,US
7086 Main Ln,,Altenburg,63732,MO,US
1860 Main North Ave,,Storm Lake,50588,IA,US
159 Church Ct,,Twentynine Palms,92278,CA,US
8408 Washington Dr,,Lake City,29560,SC,US
2043 Church Ct,,Helper,84526,UT,US
1742 Main St,,Pleasant Valley,22848,VA,US
6026 Church Blvd,,Saint Paul,72760,AR,US
4422 Main North Ct,,Salt Lake City,84150,UT,US
2543 Main Ave,,San Antonio,78287,TX,US
2868 Church Dr,,Augusta,44607,OH,US
3738 Main St,,Easton,75641,TX,US
1218 Church Ave,,Athens,30607,GA,US
7177 Church Rd,,Brownsville,21715,MD,US
8505 Elm Blvd,,West Point,95255,CA,US
1140 Main Ct,,New York,10104,NY,US
4626 Main Ct,,Raiford,32026,FL,US
7905 Elm Ct,,Squires,65755,MO,US
1030 Washington Blvd,,Spokane,99299,WA,US
9066 Main Blvd,,Slinger,53086,WI,US
9471 Elm Ct,,Fish Haven,83287,ID,US
3005 Main South Ave,,Girard,44420,OH,US
2882 Church Dr,,Alexandria,36250,AL,US
8808 Washington Ave,,New York,10259,NY,US
2685 Church St,,Savannah,31418,GA,US
6625 Washington Rd,,Paragould,72451,AR,US
8903 Church Dr,,Tampa,33625,FL,US
6859 Main North Ct,,Sacramento,42372,KY,US
7500 Main North Ct,,Coffee Springs,36318,AL,US
7088 Main Blvd,,West Jordan,84088,UT,US
2357 Main Ln,,Dothan,36301,AL,US
7083 Elm Ct,,Newburgh,12551,NY,US
7839 Main South Ct,,West Union,45693,OH,US
6640 Washington St,,New Bedford,02740,MA,US
8364 Elm Ct,,Flanagan,61740,IL,US
7374 Main South Blvd,,Decatur,62521,IL,US
1472 Main South Ct,,Gulfport,39505,MS,US
6164 Church Dr,,Hachita,88040,NM,US
9888 Washington Ct,,Hampton Falls,03844,NH,US
5635 Elm Rd,,Keaau,96749,HI,US
6279 High Rd,,Galion,44833,OH,US
1784 Main Ave,,Conetoe,27819,NC,US
9055 Main South Blvd,,Forksville,18616,PA,US
2474 High Blvd,,New Orleans,70158,LA,US
1937 Main South St,,Santa Cruz,87567,NM,US
8163 Elm Ln,,San Francisco,94121,CA,US
3214 Main Rd,,Wyoming,18644,PA,US
8984 Main St,,Arley,35541,AL,US
4910 Main South Blvd,,Belt,59412,MT,US
4383 Church Ln,,Serena,60549,IL,US
8438 Church Ln,,Kingsport,37662,TN,US
774 Elm Ct,,Fairfax,22038,VA,US
1115 Washington Rd,,Montebello,24464,VA,US
7565 Washington Ln,,Dunbarton,03046,NH,US
2236 Main South Ln,,Hubbardsville,13355,NY,US
3320 Main Ct,,Pierceville,47039,IN,US
9886 High Ave,,Kerrick,55756,MN,US
4912 Main South Dr,,Snow Hill,28580,NC,US
507 Main North St,,Roanoke,24020,VA,US
7353 Church Ln,,Dufur,97021,OR,US
3218 Main North Rd,,Acton,93510,CA,US
4592 Main North Rd,,Brookings,57006,SD,US
6522 High Ave,,Moonachie,07074,NJ,US
1897 High Ln,,Johnstown,15904,PA,US
1503 Main North Rd,,Houston,77276,TX,US
8034 High Ln,,Hartley,79044,TX,US
4776 Church Ave,,Benge,99105,WA,US
8331 Church St,,Philadelphia,19127,PA,US
3497 Main St,,Kyburz,95720,CA,US
1484 Elm Dr,,Mountain Grove,65711,MO,US
2378 Washington Blvd,,Los Angeles,95254,CA,US
8275 Washington Ct,,Pinckneyville,62274,IL,US
2740 Washington Rd,,Perkasie,18944,PA,US
7027 Washington Ln,,Mystic,06355,CT,US
8698 Elm Ct,,Northwood,50459,IA,US
5167 Washington Ave,,Valley Village,91617,CA,US
2847 Main Dr,,Fowler,81039,CO,US
9511 Main North Ct,,Cape Coral,33993,FL,US
395 Main South St,,Moorpark,93021,CA,US
6161 Church St,,Grandfield,73546,OK,US
2910 Elm St,,Osprey,34229,FL,US
3373 Church St,,Danville,46122,IN,US
3742 Main Ct,,Moosup,06354,CT,US
6194 Main Ct,,Trion,30753,GA,US
4097 Main Ave,,Hinckley,60520,IL,US
6781 Main South Ln,,Porcupine,57772,SD,US
7600 Main Ave,,Kell,62853,IL,US
8708 Church Blvd,,Madison,66860,KS,US
4368 Elm St,,Wilmington,19805,DE,US
5144 Elm St,,Overgaard,85933,AZ,US
4473 High Ln,,Long Pond,18334,PA,US
6710 Main North Blvd,,Franktown,80116,CO,US
6422 Church Ln,,Holy Cross,99602,AK,US
5185 High Ct,,Lawndale,90260,CA,US
6441 Elm Ln,,Franklinville,14737,NY,US
3260 Main North Ave,,Naco,85620,AZ,US
7002 Main North Ct,,Dallas,75220,TX,US
9285 Main North Ct,,Fort Wayne,46869,IN,US
7080 High Blvd,,Garden City,70540,LA,US
213 High Ct,,Girdler,40943,KY,US
6489 Main Blvd,,Rocky Mount,65072,MO,US
1028 Main North Rd,,Rex,28378,NC,US
4196 Main South St,,La Belle,15450,PA,US
8878 Church Ave,,Milwaukee,53202,WI,US
3175 Main Ct,,Comptche,95427,CA,US
5944 Main South Blvd,,Boys Ranch,79010,TX,US
9826 Elm St,,Clinton,52734,IA,US
150 Washington Ct,,De Mossville,41033,KY,US
8893 Main North Ln,,Neola,51559,IA,US
4909 Main Ln,,Floral Park,11005,NY,US
1580 Main South Rd,,Porum,74455,OK,US
7582 Main South Ln,,Columbia,38402,TN,US
6341 Elm Ct,,Longview,75604,TX,US
3840 High St,,Muskogee,74403,OK,US
499 Washington Ct,,Jamaica,11432,NY,US
2842 Church Ln,,Rainier,98576,WA,US
3487 Main South Ln,,Hicksville,11802,NY,US
6922 Elm Dr,,Owensboro,42301,KY,US
2569 Main St,,Antes Fort,17720,PA,US
6203 Main South Ct,,Mount Auburn,52313,IA,US
8135 Main Ct,,Seguin,78156,TX,US
9288 Main South Dr,,Lolita,77971,TX,US
1577 Main South Ave,,Los Angeles,49815,CA,US
4526 High Dr,,Wilkesboro,28697,NC,US
1640 Main North St,,Mackinac Island,49757,MI,US
4468 Elm St,,Madison,53703,WI,US
5438 Main Rd,,Houston,77233,TX,US
6736 High Dr,,Pandora,45877,OH,US
2696 Main North Rd,,Cobb Island,20625,MD,US
2337 Church Blvd,,Armstrong,65230,MO,US
2777 Main Ct,,Phoenix,85019,AZ,US
4010 Main Ln,,Pittsburgh,15239,PA,US
5560 Church Ct,,Oshkosh,54901,WI,US
5718 Main Blvd,,Rogersville,35652,AL,US
9836 Elm Ln,,Mc Rae,72102,AR,US
8649 Washington Ct,,Fpo,96634,AP,US
1475 Washington Blvd,,New Bern,28560,NC,US
3131 Main North Ln,,Dearborn,48120,MI,US
9405 Main Dr,,Columbia,29209,SC,US
2306 High Ln,,New Hyde Park,11043,NY,US
9996 Main South Blvd,,Nazlini,86540,AZ,US
5136 Church Ct,,New Harmony,47631,IN,US
4538 Main South Blvd,,Dougherty,50433,IA,US
1110 Elm St,,Warsaw,14569,NY,US
2326 Main South St,,Indianapolis,46204,IN,US
3393 Washington Ln,,Allyn,98524,WA,US
5730 Elm St,,Aurora,80015,CO,US
7877 Elm Ct,,Saltillo,38866,MS,US
4290 Washington Ave,,Siren,54872,WI,US
3389 High Ct,,Kilgore,75662,TX,US
6410 High St,,Vineland,08362,NJ,US
385 High Rd,,Canton,30169,GA,US
7649 Washington Ln,,Edgewood,75117,TX,US
9288 High Ave,,Farmington,03835,NH,US
1090 High Blvd,,Lyons,43533,OH,US
7013 Main Rd,,Roosevelt,08555,NJ,US
3553 High Ave,,Surfside,90743,CA,US
7874 Main Dr,,Hopedale,01747,MA,US
7166 Elm Rd,,Mayo,32066,FL,US
5633 Main Ln,,New York,10161,NY,US
5527 High Rd,,Kit Carson,95644,CA,US
6557 High Blvd,,Megargel,36457,AL,US
214 Main Dr,,Oakland,94602,CA,US
310 Main South Ave,,Covina,91722,CA,US
2092 High Ct,,Weatherford,76085,TX,US
3990 Washington Ct,,Pearl,62361,IL,US
2804 High Ave,,Girdletree,21829,MD,US
5091 Church St,,Glen Ridge,07028,NJ,US
7586 Main Rd,,Curryville,63339,MO,US
2193 Elm Ct,,Farmington,48336,MI,US
1155 Washington Ln,,East Springfield,16411,PA,US
7373 Church Rd,,Denver,80256,CO,US
839 Main North Dr,,Leadwood,63653,MO,US
5218 Main South Dr,,Pascoag,02859,RI,US
6992 High St,,Washington,39190,MS,US
2844 Washington Ct,,Musselshell,59059,MT,US
8711 High Dr,,Fort Myers,33902,FL,US
8853 Main Rd,,Subiaco,72865,AR,US
2504 Church Ln,,Cincinnati,45201,OH,US
3815 High Ct,,Highland Home,36041,AL,US
7677 Main North Ave,,Trujillo Alto,00976,PR,US
2277 Washington St,,Livingston,53554,WI,US
4442 Church Ave,,Enville,38332,TN,US
3494 Church St,,Hedgesville,25427,WV,US
8258 Main South St,,Portage Des Sioux,63373,MO,US
515 Main Ln,,Shreveport,71153,LA,US
9675 Washington Ave,,Chino Hills,91709,CA,US
2505 Church St,,Lake Butler,32054,FL,US
7404 High Dr,,Hereford,97837,OR,US
7991 High Blvd,,Dunnellon,34432,FL,US
9718 Main South St,,Creston,50801,IA,US
5121 Main South Ave,,Woodstock,06281,CT,US
6064 Main North St,,Nickelsville,24271,VA,US
5323 Main North St,,Coatsburg,62325,IL,US
1915 Washington Ct,,Melrose,59743,MT,US
6522 Main North St,,Greenville,29604,SC,US
7699 Main South Rd,,Naples,34120,FL,US
5671 Washington Dr,,Batavia,14020,NY,US
5565 High Rd,,El Paso,79928,TX,US
3843 Church Dr,,Potts Camp,38659,MS,US
4980 Main North Blvd,,Waubun,56589,MN,US
4767 Elm Ln,,Barryville,12719,NY,US
5297 Main South Ct,,Apalachicola,32320,FL,US
5888 Main South Rd,,Boulder,80328,CO,US
7210 Washington Ave,,Powder Springs,30127,GA,US
7532 High Rd,,Claxton,30417,GA,US
4181 Church Ct,,Portland,97238,OR,US
4842 Main Ave,,Hamlin,50117,IA,US
8955 High Ct,,Saint Charles,63302,MO,US
2262 Main Dr,,Montauk,11954,NY,US
9755 High Ct,,Winnsboro,71295,LA,US
8773 Church Ln,,Arroyo Grande,93421,CA,US
1433 Elm Ave,,Ennis,75119,TX,US
4200 Washington Ct,,Las Vegas,89145,NV,US
3559 Main Dr,,Holmes,12531,NY,US
1334 Washington Ln,,Lexington,78947,TX,US
4856 Washington Ln,,Mount Zion,30150,GA,US
6967 Main Ave,,Hammondsville,43930,OH,US
9030 Main South Dr,,Goshen,06756,CT,US
2538 Main South Ave,,San Diego,92167,CA,US
7220 Elm Ln,,Sheldon,05483,VT,US
6603 Washington Ct,,Jonesville,24263,VA,US
4442 Main Dr,,Green Bay,54308,WI,US
5385 Main South St,,Walton,13856,NY,US
5301 Washington Ct,,Belspring,24058,VA,US
5074 Main South St,,Wheatland,82201,WY,US
7338 Main North Blvd,,Burgaw,28425,NC,US
5146 High Blvd,,Midvale,83645,ID,US
7844 Washington Dr,,Chicago,60632,IL,US
825 Washington Ct,,Carleton,48117,MI,US
3828 Main North Blvd,,Broadview Heights,44147,OH,US
305 Washington St,,Heidrick,40949,KY,US
329 Washington Ln,,Dpo,09880,AE,US
8595 Main South Rd,,Oakland,94606,CA,US
7286 Washington Blvd,,Hiram,44234,OH,US
5363 Washington Rd,,Sumpter,97877,OR,US
276 Washington Ln,,Napa,94558,CA,US
9735 Elm Dr,,Reno,89519,NV,US
1130 Main North Dr,,Koeltztown,65048,MO,US
8058 Elm Rd,,Wilsall,59086,MT,US
8435 Main South Dr,,Wales Center,14169,NY,US
8084 Washington Dr,,Morro Bay,93443,CA,US
44 Main North Blvd,,Tomball,77377,TX,US
8873 Main Dr,,Kalaheo,96741,HI,US
8052 Elm Rd,,Columbia,29216,SC,US
7298 Washington Rd,,Sagaponack,11962,NY,US
5532 Church Ave,,Pansey,36370,AL,US
2985 Church Rd,,Hinkley,92347,CA,US
802 High Ave,,Saint Paul,55117,MN,US
7837 Main North Dr,,Chalmers,47929,IN,US
8141 Main North Ave,,Spokane,99220,WA,US
9391 Washington Ct,,Greenville,04441,ME,US
7798 Church Rd,,Lemont,16851,PA,US
4001 Elm Ct,,Sacramento,95817,CA,US
5799 Elm Ave,,Kincheloe,49786,MI,US
3199 Washington Blvd,,Accomac,23301,VA,US
4648 High Dr,,Lima,45807,OH,US
7523 Main Rd,,Ravensdale,98051,WA,US
4906 Main South Ln,,San Tan Valley,85143,AZ,US
9682 Main North Ln,,Cottondale,35453,AL,US
5012 Washington St,,Stanhope,50246,IA,US
8636 Main North Rd,,Vidor,77662,TX,US
3731 High Ct,,Macon,31217,GA,US
8508 Main South Ln,,Blue Hill,04614,ME,US
4990 Main North Ave,,Athol,12810,NY,US
1477 Main South Rd,,Ashland,62612,IL,US
4146 Washington Ave,,Freeport,49325,MI,US
6405 High Ln,,Bergen,14416,NY,US
8830 High Ave,,Port Hadlock,98339,WA,US
9548 High Ln,,Brewer,04412,ME,US
4328 Main North Ct,,Stidham,74461,OK,US
1902 Washington St,,Suffolk,23436,VA,US
3511 Washington Ave,,Lookout Mountain,37350,TN,US
6273 Washington Ct,,Irving,75017,TX,US
1871 High St,,Solway,56678,MN,US
2031 Main South St,,Renton,98056,WA,US
3523 High St,,Greensboro,27409,NC,US
1316 Main Ct,,Statesboro,30459,GA,US
954 Washington Blvd,,Lynxville,54640,WI,US
8780 Main North Blvd,,Lakewood,90711,CA,US
9618 Main North Ave,,Boylston,01505,MA,US
9018 Main North Dr,,Saint Louis,63133,MO,US
6822 Main Dr,,San Diego,92101,CA,US
7700 High Dr,,Mountain View,94042,CA,US
918 Main South Ave,,Claremont,23899,VA,US
5679 Church Rd,,Shirley,11967,NY,US
4027 Washington Rd,,Kingsport,37660,TN,US
1109 Main North Ln,,Greentop,63546,MO,US
2148 Elm St,,Ozona,76943,TX,US
9595 Main North St,,North Charleston,29415,SC,US
5967 Church Dr,,Bellevue,98009,WA,US
9133 Main South Rd,,Marilla,14102,NY,US
5448 Church Blvd,,Jacksontown,43030,OH,US
7770 Washington Ave,,Compton,72624,AR,US
648 Main South St,,Dallas,75237,TX,US
2136 Elm Ct,,Providence,02901,RI,US
1017 Elm Dr,,Hopkinsville,42240,KY,US
8355 Elm Rd,,Vona,80861,CO,US
6992 Main North Dr,,Compton,20627,MD,US
7072 Main North Dr,,Tranquility,07879,NJ,US
5160 Main South Dr,,Fruitvale,75127,TX,US
2799 Church Ln,,Elizabeth City,27909,NC,US
8122 Main North St,,Rochester,14644,NY,US
7655 Main St,,Blackstone,01504,MA,US
9883 Main Dr,,Freeville,13068,NY,US
5998 Main South Ct,,New Orleans,70178,LA,US
7653 Main Ln,,Grafton,53024,WI,US
4383 Elm Blvd,,Peebles,45660,OH,US
3670 Main Rd,,Old Mission,49673,MI,US
5241 Main North Ct,,Gatesville,76596,TX,US
559 Main Blvd,,Casa Grande,85293,AZ,US
3787 Washington Ln,,Stafford,67578,KS,US
8484 Elm Dr,,Henderson,21640,MD,US
2499 Main North Dr,,Holder,34445,FL,US
1940 Main Ln,,Falkland,27827,NC,US
8511 Washington Ct,,Aberdeen,21001,MD,US
7679 Main South St,,Nageezi,87037,NM,US
7977 Main Blvd,,Austin,78708,TX,US
2360 Main South Rd,,Gildford,59525,MT,US
7503 Main South Dr,,Sandy,84091,UT,US
5157 High Rd,,Miami,33233,FL,US
9559 Main South Blvd,,Menomonie,54751,WI,US
9277 Elm Rd,,Corpus Christi,78466,TX,US
2783 Main North Blvd,,Sandston,23150,VA,US
1306 Main St,,Elgin,45838,OH,US
8871 Elm Ct,,South Wayne,53587,WI,US
6316 Main South Rd,,Easley,29642,SC,US
4972 Church Dr,,Monsey,10952,NY,US
9997 Main South Rd,,Waynesville,65583,MO,US
7374 Main South Ave,,Hudson,67545,KS,US
8062 Main Blvd,,Manhattan,66503,KS,US
802 High Blvd,,Meridian,39302,MS,US
6074 Main Rd,,Brooklyn,11223,NY,US
9027 High Ct,,Louisville,44641,OH,US
7093 Main North Ln,,Oaks,19456,PA,US
5150 Washington Rd,,Braddock,15104,PA,US
8058 Church St,,Apple Springs,75926,TX,US
4697 Main South Dr,,Mounds,62964,IL,US
3691 Church Ave,,Crowville,71230,LA,US
1584 Church Ct,,Luling,78648,TX,US
5277 Main North St,,Hudson Falls,12839,NY,US
5026 Church Ave,,Charlotte,28275,NC,US
5560 Main North Ave,,Wilson,70789,LA,US
8984 Main South Dr,,Fort Dodge,50501,IA,US
1407 Elm Dr,,Portland,48875,MI,US
6474 Church St,,Dema,41859,KY,US
5625 Main North Rd,,Westville,43083,OH,US
407 Elm St,,Friendship,04547,ME,US
39 Washington Blvd,,Lehigh,50557,IA,US
3273 High Blvd,,Isleton,95641,CA,US
7721 High Ct,,Mineola,11501,NY,US
467 High St,,Campbelltown,17010,PA,US
2027 Main Ave,,Hammond,54015,WI,US
7498 Church Ave,,Saginaw,48602,MI,US
8078 Church Dr,,Bloomington,61704,IL,US
6453 High Rd,,Tescott,67484,KS,US
4452 Church St,,Fresno,93844,CA,US
2368 Elm Blvd,,Lancaster,40444,KY,US
912 Elm Ln,,Helena,59620,MT,US
6057 Elm St,,Taylorville,62568,IL,US
5110 High Ct,,Muncy Valley,17758,PA,US
3035 Main Ct,,Manton,49663,MI,US
5263 Main North Blvd,,Washington,20232,DC,US
1087 High Ct,,Tolland,06084,CT,US
5732 Church Blvd,,Cortlandt Manor,10567,NY,US
9805 Main Rd,,Springfield,62716,IL,US
3721 Church Ct,,Newbern,24126,VA,US
8194 Church Rd,,Forks,98331,WA,US
5874 High Ct,,Wauregan,06387,CT,US
6325 High Blvd,,Rainier,98576,WA,US
8017 Main North Rd,,Pentwater,49449,MI,US
1485 Main North Dr,,Union,29379,SC,US
2435 Main North St,,Guanica,00653,PR,US
8607 High Ct,,Lemon Grove,91946,CA,US
4189 Elm Ln,,Saint Petersburg,33784,FL,US
5984 High Ln,,Kaaawa,96730,HI,US
8964 Main North Rd,,Littleton,80120,CO,US
3356 Church Rd,,Green Castle,63544,MO,US
9547 Main Dr,,Marthaville,71450,LA,US
8662 High Rd,,Washington,20456,DC,US
5515 Elm Rd,,Richmond,23230,VA,US
2623 Elm Ln,,Madison,65263,MO,US
4290 Church Ct,,Stanwood,49346,MI,US
6288 Church Ln,,Lapaz,46537,IN,US
9878 High Blvd,,Severy,67137,KS,US
2787 Main South St,,Clinton,44216,OH,US
331 Washington Blvd,,Fpo,96540,AP,US
8154 Main North Ln,,Hudson,54016,WI,US
5255 Washington Ct,,Davenport,52801,IA,US
7455 Elm Blvd,,Pickstown,57367,SD,US
1130 Church St,,Punta Gorda,33982,FL,US
4269 High Ave,,Jefferson City,65111,MO,US
1100 Main South Dr,,Fredonia,14063,NY,US
8771 Elm Ln,,Las Vegas,89109,NV,US
5957 Elm Ave,,East Amherst,14051,NY,US
606 Elm Ln,,Hammon,73650,OK,US
6892 Main North Ct,,Selma,24474,VA,US
7492 Church Blvd,,Olamon,04467,ME,US
7827 High Ln,,Beaumont,77707,TX,US
9356 Main Blvd,,Townley,35587,AL,US
8226 Main Ln,,Greenville,24440,VA,US
6557 Main Rd,,Hamburg,07419,NJ,US
6425 Elm Blvd,,Dowling,49050,MI,US
5413 Elm Dr,,Union Star,64494,MO,US
7236 Main South Blvd,,Cincinnati,45298,OH,US
4348 Main South Blvd,,Richburg,29729,SC,US
2306 High Ln,,Proctor,26055,WV,US
6961 Main North Blvd,,East Lansing,48826,MI,US
9621 Main South Ln,,Pound,24279,VA,US
4105 High Dr,,Zanesfield,43360,OH,US
6220 Church Ave,,Pawnee City,68420,NE,US
5586 Elm Ct,,Hollywood,20636,MD,US
9034 Washington Blvd,,Delhi,13753,NY,US
9367 Main St,,Orlando,32804,FL,US
1496 High Dr,,Port Barre,70577,LA,US
1765 Main North Ave,,Willowbrook,60527,IL,US
5211 Washington Ave,,Caroline,54928,WI,US
8729 Washington Ln,,Era,76238,TX,US
4798 Church Dr,,Forest Home,36030,AL,US
1710 Main South St,,Hartselle,35640,AL,US
3967 Main Blvd,,Ironsides,20643,MD,US
5873 Main South Ct,,Mc Naughton,54543,WI,US
8102 Washington Ln,,Orange,92866,CA,US
9066 Elm St,,Altamont,37301,TN,US
4576 Church St,,Austin,78711,TX,US
7269 Elm Rd,,Toppenish,98948,WA,US
3195 Elm Dr,,Moody A F B,31699,GA,US
4464 Church Dr,,Caseyville,62232,IL,US
7280 High Ave,,Burt,50522,IA,US
4091 Church Blvd,,Maylene,35114,AL,US
8538 Elm Blvd,,Washington,20526,DC,US
725 Church Ln,,Rochester,14618,NY,US
3057 Main Ct,,San Antonio,78283,TX,US
4199 Main South Dr,,Bokoshe,74930,OK,US
204 Main Ave,,Feura Bush,12067,NY,US
4312 High St,,Edinburg,78540,TX,US
9323 Washington St,,Atlanta,31145,GA,US
2891 Church Ave,,Earth,79031,TX,US
4366 Washington Rd,,Macon,31297,GA,US
922 High Blvd,,Dayton,45449,OH,US
5672 Main St,,Cataula,31804,GA,US
5195 Main South St,,Taylor,58656,ND,US
6720 Main South Ln,,Bakersfield,93306,CA,US
9818 Elm Dr,,Saint Paul,55127,MN,US
6071 Washington Blvd,,Fairbanks,99775,AK,US
8104 Elm St,,Denver,46226,CO,US
6677 Elm Blvd,,Fruitland,21826,MD,US
7598 Church Dr,,Mobile,36612,AL,US
6098 Main Ln,,Albuquerque,87103,NM,US
6900 Main North Rd,,Hampton,06247,CT,US
9529 Elm St,,Brooksville,04617,ME,US
7130 Washington St,,Mauckport,47142,IN,US
4884 Church St,,Rochester,14653,NY,US
9712 High Ct,,Reidsville,27322,NC,US
150 Main North Ct,,Philippi,26416,WV,US
9282 Main Ln,,Cottageville,25239,WV,US
1228 High Ave,,Howard Lake,55575,MN,US
6702 Main Dr,,Clarkston,48346,MI,US
3821 Church Ln,,Sinnamahoning,15861,PA,US
9007 Main North Blvd,,Ironwood,49938,MI,US
5349 Main South St,,Brandt,57218,SD,US
6172 Main Blvd,,Brazoria,77422,TX,US
2847 Church Dr,,Little Lake,49833,MI,US
8078 High Rd,,Preble,46782,IN,US
1928 Church Rd,,Angelica,14709,NY,US
7619 Main North St,,Tyndall,57066,SD,US
7273 Main St,,Pittsburgh,15270,PA,US
6527 High St,,Tupelo,72169,AR,US
6598 Main South Dr,,Bloomington,61799,IL,US
9920 High Dr,,Allerton,61810,IL,US
5418 Main North Ave,,Rivervale,72377,AR,US
8370 Main Rd,,Oklahoma City,73179,OK,US
1866 Church Ave,,Washington,20070,DC,US
9846 Main South Ln,,Murdo,57559,SD,US
3867 Elm Blvd,,La Crosse,54602,WI,US
6874 Main South Ln,,West Liberty,52776,IA,US
4811 Main South Rd,,Toledo,43656,OH,US
1702 Elm St,,Nightmute,99690,AK,US
7186 Main North Ct,,Ingalls,67853,KS,US
5019 Main Blvd,,Smyrna,30082,GA,US
5556 Washington Ct,,Sabinal,78881,TX,US
7190 Washington St,,New York,10268,NY,US
8400 Main North Dr,,Sidney,45365,OH,US
2839 Elm Rd,,Midvale,84047,UT,US
5374 Main Ave,,Kingsland,31548,GA,US
878 Elm Ln,,Dunreith,47337,IN,US
7662 Main Dr,,Anchorage,99509,AK,US
1635 Washington Ave,,Miami,33184,FL,US
4841 Washington Ln,,Seminole,16253,PA,US
6201 Main St,,Ropesville,79358,TX,US
2832 Washington Rd,,Saxon,54559,WI,US
5554 Washington Ave,,Keyes,95328,CA,US
9713 Main North St,,Pattersonville,12137,NY,US
7311 Main Ave,,Warren Center,18851,PA,US
2507 Main Ct,,Tiltonsville,43963,OH,US
6526 Church Rd,,Moonachie,07074,NJ,US
9531 High Dr,,Strawberry,95375,CA,US
7879 Main South Ave,,Bullhead,57621,SD,US
8433 Main South Rd,,New Manchester,26056,WV,US
5293 Washington Blvd,,Glencoe,41046,KY,US
1593 High Ln,,Minster,45865,OH,US
9022 Main South St,,Tilleda,54978,WI,US
3234 Church Dr,,Saint Michaels,86511,AZ,US
1850 High Blvd,,West Liberty,43357,OH,US
1820 Main South Dr,,Liberty,77575,TX,US
6410 High St,,Los Angeles,08362,CA,US
4498 Elm Dr,,Brooklyn,11226,NY,US
4527 High Ln,,Ramsey,47166,IN,US
8859 Church Ln,,New Albany,66759,KS,US
4020 High Ave,,Wellton,85356,AZ,US
9070 Church Blvd,,Buffalo,14201,NY,US
4005 Main Blvd,,Rootstown,44272,OH,US
6676 Main North Ln,,Salt Lake City,84157,UT,US
977 Main Ct,,Harrisburg,17103,PA,US
1232 Main Ct,,Hondo,88336,NM,US
5099 Main North Blvd,,Artesia Wells,78001,TX,US
2323 Main Ln,,Gladys,24554,VA,US
7162 Church St,,Le Sueur,56058,MN,US
6265 Washington Rd,,Conroy,52220,IA,US
3357 High Ln,,Arroyo,00714,PR,US
4240 Elm Ct,,Theresa,13691,NY,US
5362 Main North Rd,,Smicksburg,16256,PA,US
9317 Elm Ave,,Watertown,06795,CT,US
261 Main North Dr,,Burlington,76519,TX,US
6921 Elm Ln,,Palm Springs,92292,CA,US
9555 Church Rd,,Millville,17846,PA,US
5738 High Ct,,Madison,53719,WI,US
7542 Main North Ct,,Downing,63536,MO,US
6469 Washington St,,San Juan,00906,PR,US
5368 Washington Ct,,Amarillo,79118,TX,US
3561 High Blvd,,Hiller,15444,PA,US
2746 Washington Blvd,,Ocala,34479,FL,US
4240 Main Blvd,,Honolulu,96822,HI,US
1645 Elm Blvd,,Castroville,95012,CA,US
560 Main Ave,,Vernon,07462,NJ,US
8982 Main South Blvd,,East Ellijay,30539,GA,US
8853 Elm Ln,,Riverton,51650,IA,US
6078 Main Ct,,Cumberland,02864,RI,US
5988 High Dr,,El Mirage,85335,AZ,US
6223 Main North St,,Olton,79064,TX,US
3008 Washington St,,Ponce,00731,PR,US
2981 Main South Rd,,Tallahassee,32395,FL,US
1467 Main North Ct,,Christoval,76935,TX,US
786 Main Ln,,Panola,75685,TX,US
9749 Main North Rd,,Tannersville,12485,NY,US
7169 Main Ln,,Edgecomb,04556,ME,US
4122 Main Ave,,Dpo,96521,AP,US
5550 Church Ln,,Round Pond,04564,ME,US
7053 Main South St,,El Paso,88518,TX,US
3533 Washington St,,Wheatland,73097,OK,US
5330 Washington Blvd,,Mineral Wells,76068,TX,US
914 Elm Ave,,Ostrander,43061,OH,US
5918 Main Ave,,New Haven,06501,CT,US
3947 Main North Ln,,Kingsville,64061,MO,US
4480 Main North Rd,,Murfreesboro,27855,NC,US
1588 Main Ave,,Bellows Falls,05101,VT,US
1203 Washington St,,Arlington Heights,60004,IL,US
8050 Elm Ave,,Canton,28716,NC,US
3976 Main St,,Federalsburg,21632,MD,US
6362 Main North Ct,,Westboro,64498,MO,US
7301 Elm Rd,,Gainesville,32611,FL,US
1299 Church Ln,,Point Washington,32454,FL,US
8438 Main North Rd,,Colo,50056,IA,US
8964 Elm Dr,,Bryson,76427,TX,US
7099 Elm Ave,,Gosnell,72319,AR,US
5865 High Ln,,Sage,72573,AR,US
9657 Main St,,Lexington,39095,MS,US
6129 Main North Blvd,,Huntington,25716,WV,US
6347 High St,,Bonita Springs,34134,FL,US
6628 Church St,,North Charleston,29405,SC,US
5864 Main North St,,Williamsburg,23186,VA,US
1645 Main North St,,Prospect,16052,PA,US
3714 Main Rd,,Pomona,62975,IL,US
8181 Main North Ln,,Doctors Inlet,32030,FL,US
5450 Elm Ct,,Hinsdale,01235,MA,US
7060 Main North Ave,,Philadelphia,19113,PA,US
3704 Washington Ct,,Bloomington,47405,IN,US
9409 Main North Blvd,,Rowland,28383,NC,US
5983 High Ave,,Dodge,58625,ND,US
1897 Main St,,Adams Basin,14410,NY,US
7119 Church Ave,,Misenheimer,28109,NC,US
4073 Washington Dr,,Jamesport,11947,NY,US
1444 Main North Ave,,Rumney,03266,NH,US
9852 Church Blvd,,Mobile,36616,AL,US
8483 Washington Ct,,Scranton,51462,IA,US
8567 Main North Blvd,,Columbus,43265,OH,US
9150 Church Blvd,,Greenville,95947,CA,US
679 High Ave,,Toledo,43666,OH,US
1734 Main South Ave,,Otisville,10963,NY,US
4260 Washington Blvd,,Saginaw,48609,MI,US
8090 Church Blvd,,Casselberry,32707,FL,US
2696 Washington Ct,,Montello,89830,NV,US
6935 Elm Ln,,Calais,04619,ME,US
2934 Main Dr,,Burlington Flats,13315,NY,US
9165 High Ln,,Woodcliff Lake,07677,NJ,US
4190 Main North St,,Epes,35460,AL,US
7231 Main South Ct,,Palm Harbor,34683,FL,US